IRIDIUM 155             
1 43573U 18061E   21318.55035693  .00000099  00000-0  28257-4 0  9995
2 43573  86.4007  36.9619 0002582  92.2039 267.9452 14.34217495173180
IRIDIUM 154             
1 43574U 18061F   21318.46154877  .00000194  00000-0  62132-4 0  9998
2 43574  86.4010  37.0525 0002016 102.3448 257.7974 14.34215110173225
IRIDIUM 163             
1 43575U 18061G   21318.51229283  .00000100  00000-0  28648-4 0  9990
2 43575  86.4008  36.9978 0001767  86.7021 273.4377 14.34214566173201
IRIDIUM 156             
1 43576U 18061H   21318.48691989  .00000101  00000-0  28957-4 0  9997
2 43576  86.4009  37.0137 0002208  86.7033 273.4415 14.34222075173191
IRIDIUM 164             
1 43577U 18061J   21318.53767127  .00000103  00000-0  29791-4 0  9991
2 43577  86.4010  37.0073 0001938  98.8779 261.2636 14.34217627173246
IRIDIUM 159             
1 43578U 18061K   21318.15709603  .00000093  00000-0  26240-4 0  9999
2 43578  86.4009  37.1382 0001994 100.0077 260.1343 14.34213202173156
IRIDIUM 180             
1 43922U 19002A   21318.36591082  .00000111  00000-0  32615-4 0  9995
2 43922  86.3953 333.9361 0001416 106.5216 253.6135 14.34214321148796
IRIDIUM 176             
1 43923U 19002B   21318.07535525  .00000233  00000-0  33016-4 0  9995
2 43923  86.6087 334.0925 0002412  94.9637 265.1856 14.72258977152644
IRIDIUM 168             
1 43924U 19002C   21318.35956806  .00000114  00000-0  33807-4 0  9992
2 43924  86.3956 333.9687 0002016  98.2616 261.8809 14.34220615148770
IRIDIUM 173             
1 43925U 19002D   21318.34688204  .00000115  00000-0  33868-4 0  9994
2 43925  86.3952 333.9311 0002005  95.0165 265.1260 14.34220664148753
IRIDIUM 169             
1 43926U 19002E   21318.58420193  .00000124  00000-0  34064-4 0  9991
2 43926  86.4253   5.4237 0007063  97.5933 262.6068 14.38606276149329
IRIDIUM 172             
1 43927U 19002F   21318.34054040 -.00000122  00000-0 -50633-4 0  9990
2 43927  86.3948 333.9363 0001821  96.4364 263.7039 14.34213891148761
IRIDIUM 175             
1 43928U 19002G   21318.47695202  .00000233  00000-0  33005-4 0  9991
2 43928  86.6090 333.7487 0001869  89.9762 270.1669 14.72248153152698
IRIDIUM 171             
1 43929U 19002H   21318.46105255  .00000115  00000-0  33988-4 0  9994
2 43929  86.3962 334.0064 0002048  98.3011 261.8417 14.34218531148777
IRIDIUM 170             
1 43930U 19002J   21318.48932147  .00000244  00000-0  34747-4 0  9993
2 43930  86.6087 333.9252 0002252  96.7782 263.3691 14.72260439152717
IRIDIUM 167             
1 43931U 19002K   21318.45471110  .00000114  00000-0  33526-4 0  9999
2 43931  86.3953 333.8965 0001648 104.3596 255.7783 14.34217418148779
